STARLINK-36803          
1 67893U 26035Q   26076.80832160  .00228666  00000+0  11582-2 0  9996
2 67893  97.2894   9.6311 0001700 114.7672 245.3773 15.80916293  5123
STARLINK-36846          
1 67894U 26035R   26076.83335647 -.00058619  00000+0 -39407-3 0  9996
2 67894  97.2878   9.6328 0001663  97.8198 335.1434 15.75233221  5068
STARLINK-36866          
1 67895U 26035S   26076.83335647 -.00054797  00000+0 -36836-3 0  9993
2 67895  97.2873   9.6510 0001539 105.5761  11.3938 15.75220929  5065
STARLINK-36877          
1 67896U 26035T   26076.80756274  .00293016  00000+0  14713-2 0  9990
2 67896  97.2881   9.6346 0003357 170.3343 189.7991 15.80937485  5122
STARLINK-36870          
1 67897U 26035U   26076.80530888  .00206273  00000+0  10486-2 0  9994
2 67897  97.2875   9.6333 0000226 238.5458 121.5788 15.80894555  5126
STARLINK-36810          
1 67898U 26035V   26076.55136690  .00174418  00000+0  89118-3 0  9994
2 67898  97.2873   9.3702 0001415  65.3603 294.7813 15.80866507  5084
STARLINK-36878          
1 67899U 26035W   26076.73976088  .00260101  00000+0  13125-2 0  9997
2 67899  97.2902   9.5687 0001383 107.4701 252.6719 15.80916364  5112
STARLINK-36361          
1 67900U 26035X   26076.80231267  .00216778  00000+0  11008-2 0  9990
2 67900  97.2888   9.6390 0001026 106.8247 253.3134 15.80891625  5124
STARLINK-36336          
1 67901U 26035Y   26076.73675335  .00409081  00000+0  20216-2 0  9993
2 67901  97.2905   9.5751 0001315 102.4621 257.6795 15.80991520  5118
STARLINK-36876          
1 67902U 26035Z   26076.80156056  .00241022  00000+0  12194-2 0  9991
2 67902  97.2898   9.6414 0001358 132.9528 227.1854 15.80909993  5120
STARLINK-36257          
1 67903U 26035AA  26076.83335647 -.00059482  00000+0 -40004-3 0  9991
2 67903  97.2881   9.6479 0001611 105.2596   3.7105 15.75227097  5112
STARLINK-36814          
1 67904U 26036A   26076.83335647  .00091958  00000+0  15585-2 0  9990
2 67904  43.0004 201.5670 0001420 280.6921 358.6239 15.50515133  4958
