CCSDS_OMM_VERS = 2.0
CREATION_DATE  = 
ORIGINATOR     = 

OBJECT_NAME    = STARLINK-36803
OBJECT_ID      = 2026-035Q
CENTER_NAME    = EARTH
REF_FRAME      = TEME
TIME_SYSTEM    = UTC
MEAN_ELEMENT_THEORY = SGP/SGP4

EPOCH          = 2026-03-17T19:23:58.986240
MEAN_MOTION    = 15.80916293
ECCENTRICITY   = .00017
INCLINATION    = 97.2894
RA_OF_ASC_NODE = 9.6311
ARG_OF_PERICENTER = 114.7672
MEAN_ANOMALY   = 245.3773

EPHEMERIS_TYPE = 0
CLASSIFICATION_TYPE = U
NORAD_CAT_ID   = 67893
ELEMENT_SET_NO = 999
REV_AT_EPOCH   = 512
BSTAR          = .11582E-2
MEAN_MOTION_DOT = .228666E-2
MEAN_MOTION_DDOT = 0

CCSDS_OMM_VERS = 2.0
CREATION_DATE  = 
ORIGINATOR     = 

OBJECT_NAME    = STARLINK-36846
OBJECT_ID      = 2026-035R
CENTER_NAME    = EARTH
REF_FRAME      = TEME
TIME_SYSTEM    = UTC
MEAN_ELEMENT_THEORY = SGP/SGP4

EPOCH          = 2026-03-17T20:00:01.999008
MEAN_MOTION    = 15.75233221
ECCENTRICITY   = .0001663
INCLINATION    = 97.2878
RA_OF_ASC_NODE = 9.6328
ARG_OF_PERICENTER = 97.8198
MEAN_ANOMALY   = 335.1434

EPHEMERIS_TYPE = 0
CLASSIFICATION_TYPE = U
NORAD_CAT_ID   = 67894
ELEMENT_SET_NO = 999
REV_AT_EPOCH   = 506
BSTAR          = -.39407E-3
MEAN_MOTION_DOT = -.58619E-3
MEAN_MOTION_DDOT = 0

CCSDS_OMM_VERS = 2.0
CREATION_DATE  = 
ORIGINATOR     = 

OBJECT_NAME    = STARLINK-36866
OBJECT_ID      = 2026-035S
CENTER_NAME    = EARTH
REF_FRAME      = TEME
TIME_SYSTEM    = UTC
MEAN_ELEMENT_THEORY = SGP/SGP4

EPOCH          = 2026-03-17T20:00:01.999008
MEAN_MOTION    = 15.75220929
ECCENTRICITY   = .0001539
INCLINATION    = 97.2873
RA_OF_ASC_NODE = 9.6510
ARG_OF_PERICENTER = 105.5761
MEAN_ANOMALY   = 11.3938

EPHEMERIS_TYPE = 0
CLASSIFICATION_TYPE = U
NORAD_CAT_ID   = 67895
ELEMENT_SET_NO = 999
REV_AT_EPOCH   = 506
BSTAR          = -.36836E-3
MEAN_MOTION_DOT = -.54797E-3
MEAN_MOTION_DDOT = 0

CCSDS_OMM_VERS = 2.0
CREATION_DATE  = 
ORIGINATOR     = 

OBJECT_NAME    = STARLINK-36877
OBJECT_ID      = 2026-035T
CENTER_NAME    = EARTH
REF_FRAME      = TEME
TIME_SYSTEM    = UTC
MEAN_ELEMENT_THEORY = SGP/SGP4

EPOCH          = 2026-03-17T19:22:53.420736
MEAN_MOTION    = 15.80937485
ECCENTRICITY   = .0003357
INCLINATION    = 97.2881
RA_OF_ASC_NODE = 9.6346
ARG_OF_PERICENTER = 170.3343
MEAN_ANOMALY   = 189.7991

EPHEMERIS_TYPE = 0
CLASSIFICATION_TYPE = U
NORAD_CAT_ID   = 67896
ELEMENT_SET_NO = 999
REV_AT_EPOCH   = 512
BSTAR          = .14713E-2
MEAN_MOTION_DOT = .293016E-2
MEAN_MOTION_DDOT = 0

CCSDS_OMM_VERS = 2.0
CREATION_DATE  = 
ORIGINATOR     = 

OBJECT_NAME    = STARLINK-36870
OBJECT_ID      = 2026-035U
CENTER_NAME    = EARTH
REF_FRAME      = TEME
TIME_SYSTEM    = UTC
MEAN_ELEMENT_THEORY = SGP/SGP4

EPOCH          = 2026-03-17T19:19:38.687232
MEAN_MOTION    = 15.80894555
ECCENTRICITY   = .0000226
INCLINATION    = 97.2875
RA_OF_ASC_NODE = 9.6333
ARG_OF_PERICENTER = 238.5458
MEAN_ANOMALY   = 121.5788

EPHEMERIS_TYPE = 0
CLASSIFICATION_TYPE = U
NORAD_CAT_ID   = 67897
ELEMENT_SET_NO = 999
REV_AT_EPOCH   = 512
BSTAR          = .10486E-2
MEAN_MOTION_DOT = .206273E-2
MEAN_MOTION_DDOT = 0

CCSDS_OMM_VERS = 2.0
CREATION_DATE  = 
ORIGINATOR     = 

OBJECT_NAME    = STARLINK-36810
OBJECT_ID      = 2026-035V
CENTER_NAME    = EARTH
REF_FRAME      = TEME
TIME_SYSTEM    = UTC
MEAN_ELEMENT_THEORY = SGP/SGP4

EPOCH          = 2026-03-17T13:13:58.100160
MEAN_MOTION    = 15.80866507
ECCENTRICITY   = .00014157
INCLINATION    = 97.2873
RA_OF_ASC_NODE = 9.3702
ARG_OF_PERICENTER = 65.3603
MEAN_ANOMALY   = 294.7813

EPHEMERIS_TYPE = 0
CLASSIFICATION_TYPE = U
NORAD_CAT_ID   = 67898
ELEMENT_SET_NO = 999
REV_AT_EPOCH   = 508
BSTAR          = .89117732E-3
MEAN_MOTION_DOT = .174418E-2
MEAN_MOTION_DDOT = 0

CCSDS_OMM_VERS = 2.0
CREATION_DATE  = 
ORIGINATOR     = 

OBJECT_NAME    = STARLINK-36878
OBJECT_ID      = 2026-035W
CENTER_NAME    = EARTH
REF_FRAME      = TEME
TIME_SYSTEM    = UTC
MEAN_ELEMENT_THEORY = SGP/SGP4

EPOCH          = 2026-03-17T17:45:15.340032
MEAN_MOTION    = 15.80916364
ECCENTRICITY   = .0001383
INCLINATION    = 97.2902
RA_OF_ASC_NODE = 9.5687
ARG_OF_PERICENTER = 107.4701
MEAN_ANOMALY   = 252.6719

EPHEMERIS_TYPE = 0
CLASSIFICATION_TYPE = U
NORAD_CAT_ID   = 67899
ELEMENT_SET_NO = 999
REV_AT_EPOCH   = 511
BSTAR          = .13125E-2
MEAN_MOTION_DOT = .260101E-2
MEAN_MOTION_DDOT = 0

CCSDS_OMM_VERS = 2.0
CREATION_DATE  = 
ORIGINATOR     = 

OBJECT_NAME    = STARLINK-36361
OBJECT_ID      = 2026-035X
CENTER_NAME    = EARTH
REF_FRAME      = TEME
TIME_SYSTEM    = UTC
MEAN_ELEMENT_THEORY = SGP/SGP4

EPOCH          = 2026-03-17T19:15:19.814688
MEAN_MOTION    = 15.80891625
ECCENTRICITY   = .0001026
INCLINATION    = 97.2888
RA_OF_ASC_NODE = 9.6390
ARG_OF_PERICENTER = 106.8247
MEAN_ANOMALY   = 253.3134

EPHEMERIS_TYPE = 0
CLASSIFICATION_TYPE = U
NORAD_CAT_ID   = 67900
ELEMENT_SET_NO = 999
REV_AT_EPOCH   = 512
BSTAR          = .11008E-2
MEAN_MOTION_DOT = .216778E-2
MEAN_MOTION_DDOT = 0

CCSDS_OMM_VERS = 2.0
CREATION_DATE  = 
ORIGINATOR     = 

OBJECT_NAME    = STARLINK-36336
OBJECT_ID      = 2026-035Y
CENTER_NAME    = EARTH
REF_FRAME      = TEME
TIME_SYSTEM    = UTC
MEAN_ELEMENT_THEORY = SGP/SGP4

EPOCH          = 2026-03-17T17:40:55.489440
MEAN_MOTION    = 15.80991520
ECCENTRICITY   = .0001315
INCLINATION    = 97.2905
RA_OF_ASC_NODE = 9.5751
ARG_OF_PERICENTER = 102.4621
MEAN_ANOMALY   = 257.6795

EPHEMERIS_TYPE = 0
CLASSIFICATION_TYPE = U
NORAD_CAT_ID   = 67901
ELEMENT_SET_NO = 999
REV_AT_EPOCH   = 511
BSTAR          = .20216E-2
MEAN_MOTION_DOT = .409081E-2
MEAN_MOTION_DDOT = 0

CCSDS_OMM_VERS = 2.0
CREATION_DATE  = 
ORIGINATOR     = 

OBJECT_NAME    = STARLINK-36876
OBJECT_ID      = 2026-035Z
CENTER_NAME    = EARTH
REF_FRAME      = TEME
TIME_SYSTEM    = UTC
MEAN_ELEMENT_THEORY = SGP/SGP4

EPOCH          = 2026-03-17T19:14:14.832384
MEAN_MOTION    = 15.80909993
ECCENTRICITY   = .0001358
INCLINATION    = 97.2898
RA_OF_ASC_NODE = 9.6414
ARG_OF_PERICENTER = 132.9528
MEAN_ANOMALY   = 227.1854

EPHEMERIS_TYPE = 0
CLASSIFICATION_TYPE = U
NORAD_CAT_ID   = 67902
ELEMENT_SET_NO = 999
REV_AT_EPOCH   = 512
BSTAR          = .12194E-2
MEAN_MOTION_DOT = .241022E-2
MEAN_MOTION_DDOT = 0

CCSDS_OMM_VERS = 2.0
CREATION_DATE  = 
ORIGINATOR     = 

OBJECT_NAME    = STARLINK-36257
OBJECT_ID      = 2026-035AA
CENTER_NAME    = EARTH
REF_FRAME      = TEME
TIME_SYSTEM    = UTC
MEAN_ELEMENT_THEORY = SGP/SGP4

EPOCH          = 2026-03-17T20:00:01.999008
MEAN_MOTION    = 15.75227097
ECCENTRICITY   = .0001611
INCLINATION    = 97.2881
RA_OF_ASC_NODE = 9.6479
ARG_OF_PERICENTER = 105.2596
MEAN_ANOMALY   = 3.7105

EPHEMERIS_TYPE = 0
CLASSIFICATION_TYPE = U
NORAD_CAT_ID   = 67903
ELEMENT_SET_NO = 999
REV_AT_EPOCH   = 511
BSTAR          = -.40004E-3
MEAN_MOTION_DOT = -.59482E-3
MEAN_MOTION_DDOT = 0

CCSDS_OMM_VERS = 2.0
CREATION_DATE  = 
ORIGINATOR     = 

OBJECT_NAME    = STARLINK-36814
OBJECT_ID      = 2026-036A
CENTER_NAME    = EARTH
REF_FRAME      = TEME
TIME_SYSTEM    = UTC
MEAN_ELEMENT_THEORY = SGP/SGP4

EPOCH          = 2026-03-17T20:00:01.999008
MEAN_MOTION    = 15.50515133
ECCENTRICITY   = .000142
INCLINATION    = 43.0004
RA_OF_ASC_NODE = 201.5670
ARG_OF_PERICENTER = 280.6921
MEAN_ANOMALY   = 358.6239

EPHEMERIS_TYPE = 0
CLASSIFICATION_TYPE = U
NORAD_CAT_ID   = 67904
ELEMENT_SET_NO = 999
REV_AT_EPOCH   = 495
BSTAR          = .15585E-2
MEAN_MOTION_DOT = .91958E-3
MEAN_MOTION_DDOT = 0

